[Satellite]
VERSION=1.1
NAME=CUBESAT XI 5
NICKNAME=CO-58
TLE1=1 28895U 05043F   20158.06668960  .00000088  00000-0  25841-4 0  9991
TLE2=2 28895  98.0081 294.7417 0015772 320.3582  39.6466 14.63772622779174
STATUS=0
